EUTELSAT 139 WEST A     
1 28187U 04008A   26025.62086329 -.00000101  00000+0  00000+0 0  9990
2 28187   5.4663  73.7439 0003367 150.4837   9.6349  1.00841839 79924
EUTELSAT 174A           
1 28924U 05052A   26025.82059712  .00000019  00000+0  00000+0 0  9994
2 28924   3.8564  78.3193 0006484 227.3856 288.7849  1.00270319 50902
EUTELSAT 33F            
1 29270U 06032A   26025.87392015  .00000168  00000+0  00000+0 0  9994
2 29270   1.2928  83.9499 0003625 220.7820 168.1078  1.00270449 45886
EUTELSAT HOTBIRD 13C    
1 33459U 08065A   26025.84755061 -.00000271  00000+0  00000+0 0  9993
2 33459   2.5833  80.9238 0003664 230.9327  68.0983  1.00271488 45916
EUTELSAT 36B            
1 36101U 09065A   26025.86748405  .00000126  00000+0  00000+0 0  9995
2 36101   0.1305  71.3246 0006018 236.2233 180.3890  1.00272260 59284
EUTELSAT KA-SAT 9A      
1 37258U 10069A   26025.85925067  .00000074  00000+0  00000+0 0  9997
2 37258   0.0531 338.2897 0001914 181.7445 283.4205  1.00268464 42585
EUTELSAT 7 WEST A       
1 37816U 11051A   26025.89628248 -.00000047  00000+0  00000+0 0  9995
2 37816   0.0687 334.8458 0004003 266.3078 199.3781  1.00270569 52456
EUTELSAT 16A            
1 37836U 11057A   26025.87961395  .00000117  00000+0  00000+0 0  9991
2 37836   0.0566  18.9831 0005209 288.1364 150.6921  1.00272717  5909
